******** Week 283 almanac for PRN-02 ********
ID:                         02
Health:                     000
Eccentricity:               0.1612091064E-001
Time of Applicability(s):  405504.0000
Orbital Inclination(rad):   0.9673031180
Rate of Right Ascen(r/s):  -0.7920329914E-008
SQRT(A)  (m 1/2):           5153.644043
Right Ascen at Week(rad):   0.5643296607E-001
Argument of Perigee(rad):  -1.133682210
Mean Anom(rad):             0.1587321824E+001
Af0(s):                    -0.3595352173E-003
Af1(s/s):                   0.7275957614E-011
week:                        283

******** Week 283 almanac for PRN-03 ********
ID:                         03
Health:                     000
Eccentricity:               0.5724430084E-002
Time of Applicability(s):  405504.0000
Orbital Inclination(rad):   0.9857468401
Rate of Right Ascen(r/s):  -0.7817468486E-008
SQRT(A)  (m 1/2):           5153.618164
Right Ascen at Week(rad):   0.1192819865E+001
Argument of Perigee(rad):   1.160345237
Mean Anom(rad):            -0.1968234046E+001
Af0(s):                     0.5350112915E-003
Af1(s/s):                   0.1455191523E-010
week:                        283

******** Week 283 almanac for PRN-04 ********
ID:                         04
Health:                     000
Eccentricity:               0.3016948700E-002
Time of Applicability(s):  405504.0000
Orbital Inclination(rad):   0.9657032239
Rate of Right Ascen(r/s):  -0.7680319916E-008
SQRT(A)  (m 1/2):           5153.661621
Right Ascen at Week(rad):   0.2270799772E+001
Argument of Perigee(rad):  -3.000357814
Mean Anom(rad):             0.1104711095E+001
Af0(s):                     0.4425048828E-003
Af1(s/s):                   0.7275957614E-011
week:                        283

******** Week 283 almanac for PRN-05 ********
ID:                         05
Health:                     000
Eccentricity:               0.5890846252E-002
Time of Applicability(s):  405504.0000
Orbital Inclination(rad):   0.9726900271
Rate of Right Ascen(r/s):  -0.7977475151E-008
SQRT(A)  (m 1/2):           5153.623535
Right Ascen at Week(rad):   0.1140054821E+001
Argument of Perigee(rad):   1.327555510
Mean Anom(rad):             0.1739533464E+001
Af0(s):                    -0.1859664917E-003
Af1(s/s):                   0.0000000000E+000
week:                        283

******** Week 283 almanac for PRN-06 ********
ID:                         06
Health:                     000
Eccentricity:               0.3017902374E-002
Time of Applicability(s):  405504.0000
Orbital Inclination(rad):   0.9898694135
Rate of Right Ascen(r/s):  -0.7760323249E-008
SQRT(A)  (m 1/2):           5153.651855
Right Ascen at Week(rad):   0.1570798574E+000
Argument of Perigee(rad):  -0.752799948
Mean Anom(rad):            -0.4892365074E+000
Af0(s):                     0.3528594971E-004
Af1(s/s):                  -0.2546585165E-010
week:                        283

******** Week 283 almanac for PRN-07 ********
ID:                         07
Health:                     000
Eccentricity:               0.1872682571E-001
Time of Applicability(s):  405504.0000
Orbital Inclination(rad):   0.9507529034
Rate of Right Ascen(r/s):  -0.7840326581E-008
SQRT(A)  (m 1/2):           5153.553223
Right Ascen at Week(rad):  -0.3000462676E+001
Argument of Perigee(rad):  -2.101890361
Mean Anom(rad):            -0.1401708276E+001
Af0(s):                    -0.3910064697E-004
Af1(s/s):                   0.3637978807E-011
week:                        283

******** Week 283 almanac for PRN-08 ********
ID:                         08
Health:                     000
Eccentricity:               0.9647369385E-002
Time of Applicability(s):  405504.0000
Orbital Inclination(rad):   0.9513581067
Rate of Right Ascen(r/s):  -0.7874613724E-008
SQRT(A)  (m 1/2):           5153.632812
Right Ascen at Week(rad):  -0.9420361025E+000
Argument of Perigee(rad):   0.367374167
Mean Anom(rad):             0.1430595127E+001
Af0(s):                     0.3499984741E-003
Af1(s/s):                   0.1455191523E-010
week:                        283

******** Week 283 almanac for PRN-09 ********
ID:                         09
Health:                     000
Eccentricity:               0.3094196320E-002
Time of Applicability(s):  405504.0000
Orbital Inclination(rad):   0.9593455926
Rate of Right Ascen(r/s):  -0.7771752296E-008
SQRT(A)  (m 1/2):           5153.550781
Right Ascen at Week(rad):   0.2210437853E+001
Argument of Perigee(rad):   1.983376489
Mean Anom(rad):             0.1924389010E+001
Af0(s):                     0.3538131714E-003
Af1(s/s):                   0.1455191523E-010
week:                        283

******** Week 283 almanac for PRN-10 ********
ID:                         10
Health:                     000
Eccentricity:               0.9642601013E-002
Time of Applicability(s):  405504.0000
Orbital Inclination(rad):   0.9853933055
Rate of Right Ascen(r/s):  -0.7828897534E-008
SQRT(A)  (m 1/2):           5153.641602
Right Ascen at Week(rad):   0.1190271345E+001
Argument of Perigee(rad):  -2.380185785
Mean Anom(rad):            -0.2885897231E+001
Af0(s):                    -0.1230239868E-003
Af1(s/s):                  -0.1091393642E-010
week:                        283

******** Week 283 almanac for PRN-11 ********
ID:                         11
Health:                     000
Eccentricity:               0.1679420471E-002
Time of Applicability(s):  405504.0000
Orbital Inclination(rad):   0.9664582301
Rate of Right Ascen(r/s):  -0.8000333246E-008
SQRT(A)  (m 1/2):           5153.722168
Right Ascen at Week(rad):   0.1877205244E+000
Argument of Perigee(rad):  -2.544629200
Mean Anom(rad):             0.6328135139E+000
Af0(s):                    -0.7333755493E-003
Af1(s/s):                  -0.3637978807E-011
week:                        283

******** Week 283 almanac for PRN-12 ********
ID:                         12
Health:                     000
Eccentricity:               0.8686065674E-002
Time of Applicability(s):  405504.0000
Orbital Inclination(rad):   0.9614787847
Rate of Right Ascen(r/s):  -0.7840326581E-008
SQRT(A)  (m 1/2):           5153.539551
Right Ascen at Week(rad):  -0.1884612244E+001
Argument of Perigee(rad):   1.461857101
Mean Anom(rad):            -0.2127449717E+001
Af0(s):                    -0.5378723145E-003
Af1(s/s):                  -0.3637978807E-011
week:                        283

******** Week 283 almanac for PRN-13 ********
ID:                         13
Health:                     000
Eccentricity:               0.8600234985E-002
Time of Applicability(s):  405504.0000
Orbital Inclination(rad):   0.9721747054
Rate of Right Ascen(r/s):  -0.7588887536E-008
SQRT(A)  (m 1/2):           5153.650391
Right Ascen at Week(rad):   0.2377988178E+001
Argument of Perigee(rad):   0.959041718
Mean Anom(rad):             0.1119278669E+001
Af0(s):                     0.6761550903E-003
Af1(s/s):                   0.3637978807E-011
week:                        283

******** Week 283 almanac for PRN-14 ********
ID:                         14
Health:                     000
Eccentricity:               0.4862785339E-002
Time of Applicability(s):  405504.0000
Orbital Inclination(rad):   0.9448326963
Rate of Right Ascen(r/s):  -0.8000333246E-008
SQRT(A)  (m 1/2):           5153.635742
Right Ascen at Week(rad):  -0.1930782969E+001
Argument of Perigee(rad):  -2.854892169
Mean Anom(rad):            -0.2243189241E+001
Af0(s):                     0.4940032959E-003
Af1(s/s):                   0.7275957614E-011
week:                        283

******** Week 283 almanac for PRN-15 ********
ID:                         15
Health:                     000
Eccentricity:               0.1610517502E-001
Time of Applicability(s):  405504.0000
Orbital Inclination(rad):   0.9362999281
Rate of Right Ascen(r/s):  -0.8000333246E-008
SQRT(A)  (m 1/2):           5153.648926
Right Ascen at Week(rad):   0.2079745761E+001
Argument of Perigee(rad):   1.353763137
Mean Anom(rad):             0.4322904667E+000
Af0(s):                     0.2031326294E-003
Af1(s/s):                   0.3637978807E-011
week:                        283

******** Week 283 almanac for PRN-16 ********
ID:                         16
Health:                     000
Eccentricity:               0.1393365860E-001
Time of Applicability(s):  405504.0000
Orbital Inclination(rad):   0.9608915576
Rate of Right Ascen(r/s):  -0.7840326581E-008
SQRT(A)  (m 1/2):           5153.562012
Right Ascen at Week(rad):  -0.1866868850E+001
Argument of Perigee(rad):   0.843249013
Mean Anom(rad):             0.2386705203E+001
Af0(s):                    -0.1831054688E-003
Af1(s/s):                   0.1091393642E-010
week:                        283

******** Week 283 almanac for PRN-17 ********
ID:                         17
Health:                     000
Eccentricity:               0.1353311539E-001
Time of Applicability(s):  405504.0000
Orbital Inclination(rad):   0.9672072442
Rate of Right Ascen(r/s):  -0.7748894201E-008
SQRT(A)  (m 1/2):           5153.750488
Right Ascen at Week(rad):  -0.8456084074E+000
Argument of Perigee(rad):  -1.304879858
Mean Anom(rad):             0.1337372463E+001
Af0(s):                     0.6284713745E-003
Af1(s/s):                  -0.1091393642E-010
week:                        283

